ONEWEB-0607             
1 54671U 22166AF  25124.81923915  .00000076  00000+0  15291-3 0  9995
2 54671  87.9255 325.4101 0001911  83.1546 276.9806 13.21827665117598
ONEWEB-0608             
1 54672U 22166AG  25125.05264262  .00000036  00000+0  55437-4 0  9999
2 54672  87.9237 325.3619 0002250  80.6817 279.4571 13.21825882118094
ONEWEB-0610             
1 54673U 22166AH  25125.48787980  .00000062  00000+0  11930-3 0  9992
2 54673  87.9255 325.2961 0002269  81.9493 278.1899 13.21828350118067
ONEWEB-0611             
1 54674U 22166AJ  25125.10309980  .00000046  00000+0  78829-4 0  9995
2 54674  87.9254 325.3698 0001563  91.7452 268.3860 13.21827752118003
ONEWEB-0612             
1 54675U 22166AK  25125.79699327  .00000103  00000+0  21794-3 0  9990
2 54675  87.9253 325.2098 0001996  83.9397 276.1965 13.21826370118083
ONEWEB-0615             
1 54676U 22166AL  25125.47528361 -.00000013  00000+0 -62085-4 0  9996
2 54676  87.9254 325.3001 0001871  79.8338 280.3007 13.21826087118057
ONEWEB-0655             
1 54677U 22166AM  25125.82693596 -.00000300  00000+0 -75852-3 0  9993
2 54677  87.9254 325.2342 0001720  75.2200 284.9124 13.21826336118097
ONEWEB-0659             
1 54678U 22166AN  25125.46582140 -.00000051  00000+0 -15541-3 0  9998
2 54678  87.9252 325.3081 0001820  92.6048 267.5294 13.21826121118133
